[{"OBJECT_NAME":"STARLINK-36465","OBJECT_ID":"2026-005V","EPOCH":"2026-03-09T11:47:45.416832","MEAN_MOTION":15.27584139,"ECCENTRICITY":0.00015869,"INCLINATION":42.9967,"RA_OF_ASC_NODE":239.3225,"ARG_OF_PERICENTER":282.7988,"MEAN_ANOMALY":77.2686,"EPHEMERIS_TYPE":0,"CLASSIFICATION_TYPE":"U","NORAD_CAT_ID":67423,"ELEMENT_SET_NO":999,"REV_AT_EPOCH":866,"BSTAR":0.00091952603,"MEAN_MOTION_DOT":0.00025131,"MEAN_MOTION_DDOT":0},{"OBJECT_NAME":"COSMOS 1758","OBJECT_ID":"1986-046A","EPOCH":"2026-03-09T22:23:33.220896","MEAN_MOTION":15.25706639,"ECCENTRICITY":0.00131526,"INCLINATION":82.4607,"RA_OF_ASC_NODE":143.3203,"ARG_OF_PERICENTER":337.3781,"MEAN_ANOMALY":22.6875,"EPHEMERIS_TYPE":0,"CLASSIFICATION_TYPE":"U","NORAD_CAT_ID":16791,"ELEMENT_SET_NO":999,"REV_AT_EPOCH":16610,"BSTAR":0.00027304427,"MEAN_MOTION_DOT":7.006e-5,"MEAN_MOTION_DDOT":0}]
